IRIDIUM 135             
1 43070U 17083A   26199.26832352  .00000011  00000+0 -32815-5 0  9997
2 43070  86.3983 309.0236 0002109  95.3955 264.7482 14.34217823448604
IRIDIUM 138             
1 43071U 17083B   26199.29369187  .00000142  00000+0  43472-4 0  9996
2 43071  86.4005 308.7129 0001762 102.7020 257.4373 14.34213859448599
IRIDIUM 116             
1 43072U 17083C   26199.26198081  .00000126  00000+0  37861-4 0  9994
2 43072  86.3985 309.0114 0002520  99.1907 260.9574 14.34217003448621
IRIDIUM 130             
1 43073U 17083D   26199.30003826  .00000142  00000+0  43632-4 0  9993
2 43073  86.3994 309.2742 0002325 100.4244 259.7214 14.34218687448574
IRIDIUM 151             
1 43074U 17083E   26199.27466668  .00000104  00000+0  29953-4 0  9995
2 43074  86.3983 309.0653 0002350  96.8836 263.2627 14.34218600448590
IRIDIUM 134             
1 43075U 17083F   26199.31272212  .00000043  00000+0  82073-5 0  9996
2 43075  86.3990 309.0574 0002252  96.4576 263.6876 14.34217871448565
IRIDIUM 137             
1 43076U 17083G   26199.25563954  .00000000  00000+0 -71579-5 0  9999
2 43076  86.3987 309.1750 0002566  92.1232 268.0258 14.34217727448629
IRIDIUM 141             
1 43077U 17083H   26199.24929581  .00000059  00000+0  14183-4 0  9991
2 43077  86.3985 309.0063 0002184  94.0668 266.0777 14.34217797448625
IRIDIUM 153             
1 43078U 17083J   26199.20147441  .00000044  00000+0  87055-5 0  9998
2 43078  86.3957 277.5050 0002145  95.5943 264.5497 14.34217855449728
IRIDIUM 131             
1 43079U 17083K   26199.30637926 -.00000026  00000+0 -16353-4 0  9996
2 43079  86.3986 309.1705 0002101  94.2452 265.8984 14.34217603448560
IRIDIUM 144             
1 43249U 18030A   26198.92874205  .00000090  00000+0  24994-4 0  9997
2 43249  86.3955 277.5474 0002406  96.2387 263.9083 14.34218476434544
IRIDIUM 149             
1 43250U 18030B   26199.21416011  .00000028  00000+0  28850-5 0  9996
2 43250  86.3954 277.3947 0002245  93.7263 266.4190 14.34217757434609
IRIDIUM 157             
1 43251U 18030C   26199.16342028  .00000134  00000+0  40653-4 0  9999
2 43251  86.3957 277.4700 0002277  94.3344 265.8112 14.34218715434571
IRIDIUM 140             
1 43252U 18030D   26199.18244899  .00000136  00000+0  41450-4 0  9997
2 43252  86.3957 277.4744 0002256  95.8566 264.2887 14.34218345434637
IRIDIUM 145             
1 43253U 18030E   26199.16976217  .00000082  00000+0  22295-4 0  9998
2 43253  86.3956 277.4521 0002560  98.2991 261.8495 14.34217612434563
IRIDIUM 146             
1 43254U 18030F   26199.22050303  .00000044  00000+0  86615-5 0  9990
2 43254  86.3956 277.4429 0002388  96.1620 263.9848 14.34217593434580
IRIDIUM 148             
1 43255U 18030G   26199.18879128  .00000134  00000+0  40797-4 0  9990
2 43255  86.3957 277.4995 0002342  93.2005 266.9459 14.34218713434615
IRIDIUM 142             
1 43256U 18030H   26199.22684568  .00000028  00000+0  29499-5 0  9997
2 43256  86.3953 277.3715 0002441  95.4896 264.6578 14.34217782434581
IRIDIUM 150             
1 43257U 18030J   26199.19513159  .00000126  00000+0  37799-4 0  9991
2 43257  86.3957 277.5022 0002304  96.3242 263.8216 14.34217578434608
IRIDIUM 143             
1 43258U 18030K   26199.17610524  .00000090  00000+0  25209-4 0  9997
2 43258  86.3960 277.6040 0002373  96.8677 263.2788 14.34218072434537
IRIDIUM 161             
1 43478U 18047C   26199.15988018  .00000151  00000+0  38960-4 0  9999
2 43478  86.4458  75.5179 0002206  80.7176 279.4274 14.43276571429602
IRIDIUM 152             
1 43479U 18047D   26199.14882229 -.00000115  00000+0 -48059-4 0  9998
2 43479  86.3932  75.3835 0002016  83.4317 276.7109 14.34217650426924
IRIDIUM 147             
1 43480U 18047E   26199.15516523  .00000063  00000+0  15504-4 0  9991
2 43480  86.3935  75.3868 0002291  88.2487 271.8972 14.34217576426922
IRIDIUM 110             
1 43481U 18047F   26199.16150409  .00000127  00000+0  38173-4 0  9998
2 43481  86.3938  75.4769 0002058  77.7059 282.4367 14.34219246426917
IRIDIUM 162             
1 43482U 18047G   26199.15357976  .00000169  00000+0  44093-4 0  9990
2 43482  86.4457  75.4110 0002196  87.0114 273.1338 14.43279383429594
IRIDIUM 160             
1 43569U 18061A   26199.10734295  .00000115  00000+0  34046-4 0  9998
2 43569  86.3939  43.8632 0002217  86.7202 273.4247 14.34217724417804
IRIDIUM 166             
1 43570U 18061B   26199.06294552  .00000018  00000+0 -62222-6 0  9994
2 43570  86.3937  43.8319 0002284  89.7406 270.4052 14.34217676417828
IRIDIUM 158             
1 43571U 18061C   26199.03123185  .00000038  00000+0  64705-5 0  9993
2 43571  86.3938  43.8546 0002106  88.5076 271.6361 14.34217842417781
IRIDIUM 165             
1 43572U 18061D   26199.12637204  .00000058  00000+0  13566-4 0  9996
2 43572  86.3941  43.8625 0002283  90.1141 270.0316 14.34217667417825
IRIDIUM 155             
1 43573U 18061E   26199.08831568  .00000024  00000+0  13689-5 0  9991
2 43573  86.3936  43.7455 0002143  90.7984 269.3457 14.34217546417784
